{
  "type": "FeatureCollection",
  "features": [
    {
      "type": "Feature",
      "properties": {
        "norad_id": 32376,
        "name": "COSMO-SKYMED 2",
        "group": "resource",
        "lat": -31.255192337207927,
        "lon": -18.49126233161121,
        "alt_km": 629.217376293399,
        "timestamp": "2025-12-10T23:33:12.483429+00:00",
        "meta_object_name": "COSMO-SKYMED 2",
        "meta_object_id": "2007-059A",
        "meta_epoch": "2025-12-10T14:30:04.080960",
        "meta_mean_motion": 14.82162245,
        "meta_eccentricity": 0.00015284,
        "meta_inclination": 97.8812,
        "meta_ra_of_asc_node": 165.9601,
        "meta_arg_of_pericenter": 85.2862,
        "meta_mean_anomaly": 274.8526,
        "meta_ephemeris_type": 0,
        "meta_classification_type": "U",
        "meta_norad_cat_id": 32376,
        "meta_element_set_no": 999,
        "meta_rev_at_epoch": 97406,
        "meta_bstar": 0.00012481377,
        "meta_mean_motion_dot": 9.42e-06,
        "meta_mean_motion_ddot": 0,
        "tle_line1": "1 32376U 07059A   25344.60421390  .00000942  00000+0  12481-3 0  9998",
        "tle_line2": "2 32376  97.8812 165.9601 0001528  85.2862 274.8526 14.82162245974068"
      },
      "geometry": {
        "type": "Point",
        "coordinates": [
          -18.49126233161121,
          -31.255192337207927
        ]
      }
    },
    {
      "type": "Feature",
      "properties": {
        "norad_id": 32382,
        "name": "RADARSAT-2",
        "group": "resource",
        "lat": 49.035643058024164,
        "lon": 179.61061572050428,
        "alt_km": 786.7657557948423,
        "timestamp": "2025-12-10T23:33:12.483439+00:00",
        "meta_object_name": "RADARSAT-2",
        "meta_object_id": "2007-061A",
        "meta_epoch": "2025-12-10T14:33:01.924992",
        "meta_mean_motion": 14.29980558,
        "meta_eccentricity": 0.00011169,
        "meta_inclination": 98.5797,
        "meta_ra_of_asc_node": 349.2269,
        "meta_arg_of_pericenter": 86.1369,
        "meta_mean_anomaly": 273.9941,
        "meta_ephemeris_type": 0,
        "meta_classification_type": "U",
        "meta_norad_cat_id": 32382,
        "meta_element_set_no": 999,
        "meta_rev_at_epoch": 93900,
        "meta_bstar": -4.66485e-06,
        "meta_mean_motion_dot": -5.6e-07,
        "meta_mean_motion_ddot": 0,
        "tle_line1": "1 32382U 07061A   25344.60627228 -.00000056  00000+0 -46648-5 0  9998",
        "tle_line2": "2 32382  98.5797 349.2269 0001116  86.1369 273.9941 14.29980558939009"
      },
      "geometry": {
        "type": "Point",
        "coordinates": [
          179.61061572050428,
          49.035643058024164
        ]
      }
    },
    {
      "type": "Feature",
      "properties": {
        "norad_id": 32783,
        "name": "CARTOSAT-2A",
        "group": "resource",
        "lat": 11.354984391807735,
        "lon": 33.28351237941906,
        "alt_km": 625.6280487534623,
        "timestamp": "2025-12-10T23:33:12.483448+00:00",
        "meta_object_name": "CARTOSAT-2A",
        "meta_object_id": "2008-021A",
        "meta_epoch": "2025-12-10T13:45:33.221952",
        "meta_mean_motion": 14.78931405,
        "meta_eccentricity": 0.00121192,
        "meta_inclination": 97.7928,
        "meta_ra_of_asc_node": 34.4641,
        "meta_arg_of_pericenter": 11.4664,
        "meta_mean_anomaly": 348.6822,
        "meta_ephemeris_type": 0,
        "meta_classification_type": "U",
        "meta_norad_cat_id": 32783,
        "meta_element_set_no": 999,
        "meta_rev_at_epoch": 95092,
        "meta_bstar": 0.00022586277,
        "meta_mean_motion_dot": 1.617e-05,
        "meta_mean_motion_ddot": 0,
        "tle_line1": "1 32783U 08021A   25344.57330118  .00001617  00000+0  22586-3 0  9990",
        "tle_line2": "2 32783  97.7928  34.4641 0012119  11.4664 348.6822 14.78931405950925"
      },
      "geometry": {
        "type": "Point",
        "coordinates": [
          33.28351237941906,
          11.354984391807735
        ]
      }
    },
    {
      "type": "Feature",
      "properties": {
        "norad_id": 33320,
        "name": "HUANJING 1A (HJ-1A)",
        "group": "resource",
        "lat": -28.68474887357233,
        "lon": 149.13353958390184,
        "alt_km": 638.5094596049594,
        "timestamp": "2025-12-10T23:33:12.483457+00:00",
        "meta_object_name": "HUANJING 1A (HJ-1A)",
        "meta_object_id": "2008-041A",
        "meta_epoch": "2025-12-10T14:31:15.950208",
        "meta_mean_motion": 14.83383381,
        "meta_eccentricity": 0.00203198,
        "meta_inclination": 97.6545,
        "meta_ra_of_asc_node": 332.9927,
        "meta_arg_of_pericenter": 41.2682,
        "meta_mean_anomaly": 319.0064,
        "meta_ephemeris_type": 0,
        "meta_classification_type": "U",
        "meta_norad_cat_id": 33320,
        "meta_element_set_no": 999,
        "meta_rev_at_epoch": 93044,
        "meta_bstar": 0.00028518023,
        "meta_mean_motion_dot": 2.296e-05,
        "meta_mean_motion_ddot": 0,
        "tle_line1": "1 33320U 08041A   25344.60504572  .00002296  00000+0  28518-3 0  9996",
        "tle_line2": "2 33320  97.6545 332.9927 0020319  41.2682 319.0064 14.83383381930447"
      },
      "geometry": {
        "type": "Point",
        "coordinates": [
          149.13353958390184,
          -28.68474887357233
        ]
      }
    },
    {
      "type": "Feature",
      "properties": {
        "norad_id": 33321,
        "name": "HUANJING 1B (HJ-1B)",
        "group": "resource",
        "lat": 71.81413192568539,
        "lon": -47.06315816325794,
        "alt_km": 586.9842723805914,
        "timestamp": "2025-12-10T23:33:12.483467+00:00",
        "meta_object_name": "HUANJING 1B (HJ-1B)",
        "meta_object_id": "2008-041B",
        "meta_epoch": "2025-12-10T15:07:38.760672",
        "meta_mean_motion": 14.82812326,
        "meta_eccentricity": 0.00382813,
        "meta_inclination": 97.6402,
        "meta_ra_of_asc_node": 336.719,
        "meta_arg_of_pericenter": 82.2476,
        "meta_mean_anomaly": 278.3082,
        "meta_ephemeris_type": 0,
        "meta_classification_type": "U",
        "meta_norad_cat_id": 33321,
        "meta_element_set_no": 999,
        "meta_rev_at_epoch": 93046,
        "meta_bstar": 0.00023071337,
        "meta_mean_motion_dot": 1.839e-05,
        "meta_mean_motion_ddot": 0,
        "tle_line1": "1 33321U 08041B   25344.63030973  .00001839  00000+0  23071-3 0  9990",
        "tle_line2": "2 33321  97.6402 336.7190 0038281  82.2476 278.3082 14.82812326930461"
      },
      "geometry": {
        "type": "Point",
        "coordinates": [
          -47.06315816325794,
          71.81413192568539
        ]
      }
    },
    {
      "type": "Feature",
      "properties": {
        "norad_id": 33331,
        "name": "GEOEYE 1",
        "group": "resource",
        "lat": 6.354738143135248,
        "lon": -122.80426471400331,
        "alt_km": 680.522503557374,
        "timestamp": "2025-12-10T23:33:12.483476+00:00",
        "meta_object_name": "GEOEYE 1",
        "meta_object_id": "2008-042A",
        "meta_epoch": "2025-12-10T14:34:00.179328",
        "meta_mean_motion": 14.64808231,
        "meta_eccentricity": 0.00027484,
        "meta_inclination": 98.1255,
        "meta_ra_of_asc_node": 55.9143,
        "meta_arg_of_pericenter": 286.0097,
        "meta_mean_anomaly": 74.0803,
        "meta_ephemeris_type": 0,
        "meta_classification_type": "U",
        "meta_norad_cat_id": 33331,
        "meta_element_set_no": 999,
        "meta_rev_at_epoch": 92254,
        "meta_bstar": 0.00019843942,
        "meta_mean_motion_dot": 1.011e-05,
        "meta_mean_motion_ddot": 0,
        "tle_line1": "1 33331U 08042A   25344.60694652  .00001011  00000+0  19844-3 0  9994",
        "tle_line2": "2 33331  98.1255  55.9143 0002748 286.0097  74.0803 14.64808231922546"
      },
      "geometry": {
        "type": "Point",
        "coordinates": [
          -122.80426471400331,
          6.354738143135248
        ]
      }
    },
    {
      "type": "Feature",
      "properties": {
        "norad_id": 33396,
        "name": "THEOS",
        "group": "resource",
        "lat": -46.5229389862969,
        "lon": 52.29131977167479,
        "alt_km": 832.3840536761372,
        "timestamp": "2025-12-10T23:33:12.483486+00:00",
        "meta_object_name": "THEOS",
        "meta_object_id": "2008-049A",
        "meta_epoch": "2025-12-10T15:19:13.802016",
        "meta_mean_motion": 14.20097285,
        "meta_eccentricity": 0.00011226,
        "meta_inclination": 98.5865,
        "meta_ra_of_asc_node": 42.7896,
        "meta_arg_of_pericenter": 93.8854,
        "meta_mean_anomaly": 266.2451,
        "meta_ephemeris_type": 0,
        "meta_classification_type": "U",
        "meta_norad_cat_id": 33396,
        "meta_element_set_no": 999,
        "meta_rev_at_epoch": 89120,
        "meta_bstar": 0.00024288102,
        "meta_mean_motion_dot": 4.75e-06,
        "meta_mean_motion_ddot": 0,
        "tle_line1": "1 33396U 08049A   25344.63835419  .00000475  00000+0  24288-3 0  9994",
        "tle_line2": "2 33396  98.5865  42.7896 0001122  93.8854 266.2451 14.20097285891200"
      },
      "geometry": {
        "type": "Point",
        "coordinates": [
          52.29131977167479,
          -46.5229389862969
        ]
      }
    }
  ]
}